<?xml version="1.0" encoding="UTF-8"?>
<ndm xmlns:xsi="http://www.w3.org/2001/XMLSchema-instance" xsi:noNamespaceSchemaLocation="https://sanaregistry.org/r/ndmxml_unqualified/ndmxml-2.0.0-master-2.0.xsd">
<omm id="CCSDS_OMM_VERS" version="2.0">
<header><CREATION_DATE/><ORIGINATOR/></header><body><segment><metadata><OBJECT_NAME>KUIPER-00095</OBJECT_NAME><OBJECT_ID>2025-171C</OBJECT_ID><CENTER_NAME>EARTH</CENTER_NAME><REF_FRAME>TEME</REF_FRAME><TIME_SYSTEM>UTC</TIME_SYSTEM><MEAN_ELEMENT_THEORY>SGP4</MEAN_ELEMENT_THEORY></metadata><data><meanElements><EPOCH>2025-10-20T18:57:28.133280</EPOCH><MEAN_MOTION>15.37373752</MEAN_MOTION><ECCENTRICITY>.00045225</ECCENTRICITY><INCLINATION>51.8745</INCLINATION><RA_OF_ASC_NODE>65.6386</RA_OF_ASC_NODE><ARG_OF_PERICENTER>32.5483</ARG_OF_PERICENTER><MEAN_ANOMALY>327.5782</MEAN_ANOMALY></meanElements><tleParameters><EPHEMERIS_TYPE>0</EPHEMERIS_TYPE><CLASSIFICATION_TYPE>U</CLASSIFICATION_TYPE><NORAD_CAT_ID>65134</NORAD_CAT_ID><ELEMENT_SET_NO>999</ELEMENT_SET_NO><REV_AT_EPOCH>1205</REV_AT_EPOCH><BSTAR>.19443885E-2</BSTAR><MEAN_MOTION_DOT>.72667E-3</MEAN_MOTION_DOT><MEAN_MOTION_DDOT>0</MEAN_MOTION_DDOT></tleParameters></data></segment></body></omm>
<omm id="CCSDS_OMM_VERS" version="2.0">
<header><CREATION_DATE/><ORIGINATOR/></header><body><segment><metadata><OBJECT_NAME>KUIPER-00096</OBJECT_NAME><OBJECT_ID>2025-171D</OBJECT_ID><CENTER_NAME>EARTH</CENTER_NAME><REF_FRAME>TEME</REF_FRAME><TIME_SYSTEM>UTC</TIME_SYSTEM><MEAN_ELEMENT_THEORY>SGP4</MEAN_ELEMENT_THEORY></metadata><data><meanElements><EPOCH>2025-10-22T04:00:00.999072</EPOCH><MEAN_MOTION>15.32126996</MEAN_MOTION><ECCENTRICITY>.000613</ECCENTRICITY><INCLINATION>51.8783</INCLINATION><RA_OF_ASC_NODE>58.9675</RA_OF_ASC_NODE><ARG_OF_PERICENTER>29.3850</ARG_OF_PERICENTER><MEAN_ANOMALY>41.9042</MEAN_ANOMALY></meanElements><tleParameters><EPHEMERIS_TYPE>0</EPHEMERIS_TYPE><CLASSIFICATION_TYPE>U</CLASSIFICATION_TYPE><NORAD_CAT_ID>65135</NORAD_CAT_ID><ELEMENT_SET_NO>999</ELEMENT_SET_NO><REV_AT_EPOCH>510</REV_AT_EPOCH><BSTAR>.20928E-2</BSTAR><MEAN_MOTION_DOT>.66124E-3</MEAN_MOTION_DOT><MEAN_MOTION_DDOT>0</MEAN_MOTION_DDOT></tleParameters></data></segment></body></omm>
<omm id="CCSDS_OMM_VERS" version="2.0">
<header><CREATION_DATE/><ORIGINATOR/></header><body><segment><metadata><OBJECT_NAME>KUIPER-00097</OBJECT_NAME><OBJECT_ID>2025-171E</OBJECT_ID><CENTER_NAME>EARTH</CENTER_NAME><REF_FRAME>TEME</REF_FRAME><TIME_SYSTEM>UTC</TIME_SYSTEM><MEAN_ELEMENT_THEORY>SGP4</MEAN_ELEMENT_THEORY></metadata><data><meanElements><EPOCH>2025-10-22T04:00:00.999072</EPOCH><MEAN_MOTION>15.23804091</MEAN_MOTION><ECCENTRICITY>.0005111</ECCENTRICITY><INCLINATION>51.8837</INCLINATION><RA_OF_ASC_NODE>59.6624</RA_OF_ASC_NODE><ARG_OF_PERICENTER>20.3998</ARG_OF_PERICENTER><MEAN_ANOMALY>38.8849</MEAN_ANOMALY></meanElements><tleParameters><EPHEMERIS_TYPE>0</EPHEMERIS_TYPE><CLASSIFICATION_TYPE>U</CLASSIFICATION_TYPE><NORAD_CAT_ID>65136</NORAD_CAT_ID><ELEMENT_SET_NO>999</ELEMENT_SET_NO><REV_AT_EPOCH>543</REV_AT_EPOCH><BSTAR>-.40638E-1</BSTAR><MEAN_MOTION_DOT>-.920583E-2</MEAN_MOTION_DOT><MEAN_MOTION_DDOT>0</MEAN_MOTION_DDOT></tleParameters></data></segment></body></omm>
<omm id="CCSDS_OMM_VERS" version="2.0">
<header><CREATION_DATE/><ORIGINATOR/></header><body><segment><metadata><OBJECT_NAME>KUIPER-00098</OBJECT_NAME><OBJECT_ID>2025-171F</OBJECT_ID><CENTER_NAME>EARTH</CENTER_NAME><REF_FRAME>TEME</REF_FRAME><TIME_SYSTEM>UTC</TIME_SYSTEM><MEAN_ELEMENT_THEORY>SGP4</MEAN_ELEMENT_THEORY></metadata><data><meanElements><EPOCH>2025-10-22T04:00:00.999072</EPOCH><MEAN_MOTION>15.19431239</MEAN_MOTION><ECCENTRICITY>.000516</ECCENTRICITY><INCLINATION>51.8824</INCLINATION><RA_OF_ASC_NODE>60.0155</RA_OF_ASC_NODE><ARG_OF_PERICENTER>25.6536</ARG_OF_PERICENTER><MEAN_ANOMALY>257.7924</MEAN_ANOMALY></meanElements><tleParameters><EPHEMERIS_TYPE>0</EPHEMERIS_TYPE><CLASSIFICATION_TYPE>U</CLASSIFICATION_TYPE><NORAD_CAT_ID>65137</NORAD_CAT_ID><ELEMENT_SET_NO>999</ELEMENT_SET_NO><REV_AT_EPOCH>573</REV_AT_EPOCH><BSTAR>-.58078E-1</BSTAR><MEAN_MOTION_DOT>-.1150489E-1</MEAN_MOTION_DOT><MEAN_MOTION_DDOT>0</MEAN_MOTION_DDOT></tleParameters></data></segment></body></omm>
<omm id="CCSDS_OMM_VERS" version="2.0">
<header><CREATION_DATE/><ORIGINATOR/></header><body><segment><metadata><OBJECT_NAME>KUIPER-00099</OBJECT_NAME><OBJECT_ID>2025-171G</OBJECT_ID><CENTER_NAME>EARTH</CENTER_NAME><REF_FRAME>TEME</REF_FRAME><TIME_SYSTEM>UTC</TIME_SYSTEM><MEAN_ELEMENT_THEORY>SGP4</MEAN_ELEMENT_THEORY></metadata><data><meanElements><EPOCH>2025-10-22T01:31:01.172064</EPOCH><MEAN_MOTION>15.38261881</MEAN_MOTION><ECCENTRICITY>.0006744</ECCENTRICITY><INCLINATION>51.8763</INCLINATION><RA_OF_ASC_NODE>59.1908</RA_OF_ASC_NODE><ARG_OF_PERICENTER>14.7905</ARG_OF_PERICENTER><MEAN_ANOMALY>345.3278</MEAN_ANOMALY></meanElements><tleParameters><EPHEMERIS_TYPE>0</EPHEMERIS_TYPE><CLASSIFICATION_TYPE>U</CLASSIFICATION_TYPE><NORAD_CAT_ID>65138</NORAD_CAT_ID><ELEMENT_SET_NO>999</ELEMENT_SET_NO><REV_AT_EPOCH>1224</REV_AT_EPOCH><BSTAR>.26338E-2</BSTAR><MEAN_MOTION_DOT>.101893E-2</MEAN_MOTION_DOT><MEAN_MOTION_DDOT>0</MEAN_MOTION_DDOT></tleParameters></data></segment></body></omm>
<omm id="CCSDS_OMM_VERS" version="2.0">
<header><CREATION_DATE/><ORIGINATOR/></header><body><segment><metadata><OBJECT_NAME>KUIPER-00100</OBJECT_NAME><OBJECT_ID>2025-171H</OBJECT_ID><CENTER_NAME>EARTH</CENTER_NAME><REF_FRAME>TEME</REF_FRAME><TIME_SYSTEM>UTC</TIME_SYSTEM><MEAN_ELEMENT_THEORY>SGP4</MEAN_ELEMENT_THEORY></metadata><data><meanElements><EPOCH>2025-10-22T01:45:43.583040</EPOCH><MEAN_MOTION>15.38041357</MEAN_MOTION><ECCENTRICITY>.0005226</ECCENTRICITY><INCLINATION>51.8761</INCLINATION><RA_OF_ASC_NODE>59.2456</RA_OF_ASC_NODE><ARG_OF_PERICENTER>2.0609</ARG_OF_PERICENTER><MEAN_ANOMALY>358.0398</MEAN_ANOMALY></meanElements><tleParameters><EPHEMERIS_TYPE>0</EPHEMERIS_TYPE><CLASSIFICATION_TYPE>U</CLASSIFICATION_TYPE><NORAD_CAT_ID>65139</NORAD_CAT_ID><ELEMENT_SET_NO>999</ELEMENT_SET_NO><REV_AT_EPOCH>1224</REV_AT_EPOCH><BSTAR>.23275E-2</BSTAR><MEAN_MOTION_DOT>.89179E-3</MEAN_MOTION_DOT><MEAN_MOTION_DDOT>0</MEAN_MOTION_DDOT></tleParameters></data></segment></body></omm>
<omm id="CCSDS_OMM_VERS" version="2.0">
<header><CREATION_DATE/><ORIGINATOR/></header><body><segment><metadata><OBJECT_NAME>KUIPER-00102</OBJECT_NAME><OBJECT_ID>2025-171J</OBJECT_ID><CENTER_NAME>EARTH</CENTER_NAME><REF_FRAME>TEME</REF_FRAME><TIME_SYSTEM>UTC</TIME_SYSTEM><MEAN_ELEMENT_THEORY>SGP4</MEAN_ELEMENT_THEORY></metadata><data><meanElements><EPOCH>2025-10-21T13:40:44.791968</EPOCH><MEAN_MOTION>15.37610362</MEAN_MOTION><ECCENTRICITY>.0005422</ECCENTRICITY><INCLINATION>51.8743</INCLINATION><RA_OF_ASC_NODE>61.8658</RA_OF_ASC_NODE><ARG_OF_PERICENTER>24.0208</ARG_OF_PERICENTER><MEAN_ANOMALY>336.1031</MEAN_ANOMALY></meanElements><tleParameters><EPHEMERIS_TYPE>0</EPHEMERIS_TYPE><CLASSIFICATION_TYPE>U</CLASSIFICATION_TYPE><NORAD_CAT_ID>65140</NORAD_CAT_ID><ELEMENT_SET_NO>999</ELEMENT_SET_NO><REV_AT_EPOCH>1216</REV_AT_EPOCH><BSTAR>.33207E-2</BSTAR><MEAN_MOTION_DOT>.126247E-2</MEAN_MOTION_DOT><MEAN_MOTION_DDOT>0</MEAN_MOTION_DDOT></tleParameters></data></segment></body></omm>
<omm id="CCSDS_OMM_VERS" version="2.0">
<header><CREATION_DATE/><ORIGINATOR/></header><body><segment><metadata><OBJECT_NAME>KUIPER-00103</OBJECT_NAME><OBJECT_ID>2025-171K</OBJECT_ID><CENTER_NAME>EARTH</CENTER_NAME><REF_FRAME>TEME</REF_FRAME><TIME_SYSTEM>UTC</TIME_SYSTEM><MEAN_ELEMENT_THEORY>SGP4</MEAN_ELEMENT_THEORY></metadata><data><meanElements><EPOCH>2025-10-22T04:00:00.999072</EPOCH><MEAN_MOTION>14.95731182</MEAN_MOTION><ECCENTRICITY>.0006005</ECCENTRICITY><INCLINATION>51.8952</INCLINATION><RA_OF_ASC_NODE>63.7918</RA_OF_ASC_NODE><ARG_OF_PERICENTER>31.1034</ARG_OF_PERICENTER><MEAN_ANOMALY>197.2398</MEAN_ANOMALY></meanElements><tleParameters><EPHEMERIS_TYPE>0</EPHEMERIS_TYPE><CLASSIFICATION_TYPE>U</CLASSIFICATION_TYPE><NORAD_CAT_ID>65141</NORAD_CAT_ID><ELEMENT_SET_NO>999</ELEMENT_SET_NO><REV_AT_EPOCH>586</REV_AT_EPOCH><BSTAR>-.56073E-3</BSTAR><MEAN_MOTION_DOT>-.6566E-4</MEAN_MOTION_DOT><MEAN_MOTION_DDOT>0</MEAN_MOTION_DDOT></tleParameters></data></segment></body></omm>

</ndm>
