KUIPER-00095            
1 65134U 25171C   25293.78990895  .00072667  00000+0  19444-2 0  9992
2 65134  51.8745  65.6386 0004522  32.5483 327.5782 15.37373752 12058
KUIPER-00096            
1 65135U 25171D   25295.16667823  .00066124  00000+0  20928-2 0  9999
2 65135  51.8783  58.9675 0006130  29.3850  41.9042 15.32126996  5101
KUIPER-00097            
1 65136U 25171E   25295.16667823 -.00920583  00000+0 -40638-1 0  9999
2 65136  51.8837  59.6624 0005111  20.3998  38.8849 15.23804091  5431
KUIPER-00098            
1 65137U 25171F   25295.16667823 -.01150489  00000+0 -58078-1 0  9998
2 65137  51.8824  60.0155 0005160  25.6536 257.7924 15.19431239  5737
KUIPER-00099            
1 65138U 25171G   25295.06320801  .00101893  00000+0  26338-2 0  9997
2 65138  51.8763  59.1908 0006744  14.7905 345.3278 15.38261881 12248
KUIPER-00100            
1 65139U 25171H   25295.07342110  .00089179  00000+0  23275-2 0  9995
2 65139  51.8761  59.2456 0005226   2.0609 358.0398 15.38041357 12249
KUIPER-00102            
1 65140U 25171J   25294.56996287  .00126247  00000+0  33207-2 0  9994
2 65140  51.8743  61.8658 0005422  24.0208 336.1031 15.37610362 12160
KUIPER-00103            
1 65141U 25171K   25295.16667823 -.00006566  00000+0 -56073-3 0  9993
2 65141  51.8952  63.7918 0006005  31.1034 197.2398 14.95731182  5865
